CCSDS_OMM_VERS = 2.0
CREATION_DATE  = 
ORIGINATOR     = 

OBJECT_NAME    = COSMOS 2058
OBJECT_ID      = 1990-010A
CENTER_NAME    = EARTH
REF_FRAME      = TEME
TIME_SYSTEM    = UTC
MEAN_ELEMENT_THEORY = SGP/SGP4

EPOCH          = 2026-04-04T20:45:23.593824
MEAN_MOTION    = 15.11590190
ECCENTRICITY   = .0008078
INCLINATION    = 82.4727
RA_OF_ASC_NODE = 21.6381
ARG_OF_PERICENTER = 237.1930
MEAN_ANOMALY   = 122.8522

EPHEMERIS_TYPE = 0
CLASSIFICATION_TYPE = U
NORAD_CAT_ID   = 20465
ELEMENT_SET_NO = 999
REV_AT_EPOCH   = 94619
BSTAR          = .36857019E-3
MEAN_MOTION_DOT = .6287E-4
MEAN_MOTION_DDOT = 0

CCSDS_OMM_VERS = 2.0
CREATION_DATE  = 
ORIGINATOR     = 

OBJECT_NAME    = SL-14 R/B
OBJECT_ID      = 1990-010B
CENTER_NAME    = EARTH
REF_FRAME      = TEME
TIME_SYSTEM    = UTC
MEAN_ELEMENT_THEORY = SGP/SGP4

EPOCH          = 2026-04-04T22:09:45.285120
MEAN_MOTION    = 14.83596455
ECCENTRICITY   = .00190665
INCLINATION    = 82.5007
RA_OF_ASC_NODE = 242.7404
ARG_OF_PERICENTER = 209.7617
MEAN_ANOMALY   = 150.2515

EPHEMERIS_TYPE = 0
CLASSIFICATION_TYPE = U
NORAD_CAT_ID   = 20466
ELEMENT_SET_NO = 999
REV_AT_EPOCH   = 93237
BSTAR          = .81097806E-4
MEAN_MOTION_DOT = .694E-5
MEAN_MOTION_DDOT = 0

CCSDS_OMM_VERS = 2.0
CREATION_DATE  = 
ORIGINATOR     = 

OBJECT_NAME    = SL-14 R/B
OBJECT_ID      = 1990-018B
CENTER_NAME    = EARTH
REF_FRAME      = TEME
TIME_SYSTEM    = UTC
MEAN_ELEMENT_THEORY = SGP/SGP4

EPOCH          = 2026-04-04T18:19:59.510208
MEAN_MOTION    = 14.82172840
ECCENTRICITY   = .00163924
INCLINATION    = 82.5243
RA_OF_ASC_NODE = 198.7248
ARG_OF_PERICENTER = 11.3524
MEAN_ANOMALY   = 348.8057

EPHEMERIS_TYPE = 0
CLASSIFICATION_TYPE = U
NORAD_CAT_ID   = 20511
ELEMENT_SET_NO = 999
REV_AT_EPOCH   = 92644
BSTAR          = .84741143E-4
MEAN_MOTION_DOT = .7E-5
MEAN_MOTION_DDOT = 0

CCSDS_OMM_VERS = 2.0
CREATION_DATE  = 
ORIGINATOR     = 

OBJECT_NAME    = HST
OBJECT_ID      = 1990-037B
CENTER_NAME    = EARTH
REF_FRAME      = TEME
TIME_SYSTEM    = UTC
MEAN_ELEMENT_THEORY = SGP/SGP4

EPOCH          = 2026-04-04T15:32:47.128416
MEAN_MOTION    = 15.29923140
ECCENTRICITY   = .0002193
INCLINATION    = 28.4724
RA_OF_ASC_NODE = 222.8665
ARG_OF_PERICENTER = 61.0619
MEAN_ANOMALY   = 299.0197

EPHEMERIS_TYPE = 0
CLASSIFICATION_TYPE = U
NORAD_CAT_ID   = 20580
ELEMENT_SET_NO = 999
REV_AT_EPOCH   = 77729
BSTAR          = .36493E-3
MEAN_MOTION_DOT = .11124E-3
MEAN_MOTION_DDOT = 0

CCSDS_OMM_VERS = 2.0
CREATION_DATE  = 
ORIGINATOR     = 

OBJECT_NAME    = SL-16 R/B
OBJECT_ID      = 1990-046B
CENTER_NAME    = EARTH
REF_FRAME      = TEME
TIME_SYSTEM    = UTC
MEAN_ELEMENT_THEORY = SGP/SGP4

EPOCH          = 2026-04-04T20:28:31.281312
MEAN_MOTION    = 14.15019317
ECCENTRICITY   = .00165697
INCLINATION    = 70.9988
RA_OF_ASC_NODE = 242.9608
ARG_OF_PERICENTER = 265.7039
MEAN_ANOMALY   = 94.2190

EPHEMERIS_TYPE = 0
CLASSIFICATION_TYPE = U
NORAD_CAT_ID   = 20625
ELEMENT_SET_NO = 999
REV_AT_EPOCH   = 85209
BSTAR          = .28971777E-4
MEAN_MOTION_DOT = .8E-7
MEAN_MOTION_DDOT = 0

CCSDS_OMM_VERS = 2.0
CREATION_DATE  = 
ORIGINATOR     = 

OBJECT_NAME    = COSMOS 2084
OBJECT_ID      = 1990-055A
CENTER_NAME    = EARTH
REF_FRAME      = TEME
TIME_SYSTEM    = UTC
MEAN_ELEMENT_THEORY = SGP/SGP4

EPOCH          = 2026-04-04T19:43:02.978400
MEAN_MOTION    = 15.05816242
ECCENTRICITY   = .00128853
INCLINATION    = 62.7898
RA_OF_ASC_NODE = 246.4378
ARG_OF_PERICENTER = 199.0810
MEAN_ANOMALY   = 160.9810

EPHEMERIS_TYPE = 0
CLASSIFICATION_TYPE = U
NORAD_CAT_ID   = 20663
ELEMENT_SET_NO = 999
REV_AT_EPOCH   = 94025
BSTAR          = .30627016E-3
MEAN_MOTION_DOT = .4272E-4
MEAN_MOTION_DDOT = 0

CCSDS_OMM_VERS = 2.0
CREATION_DATE  = 
ORIGINATOR     = 

OBJECT_NAME    = SL-6 R/B(2)
OBJECT_ID      = 1990-055D
CENTER_NAME    = EARTH
REF_FRAME      = TEME
TIME_SYSTEM    = UTC
MEAN_ELEMENT_THEORY = SGP/SGP4

EPOCH          = 2026-04-04T21:45:31.090176
MEAN_MOTION    = 15.03728874
ECCENTRICITY   = .00291053
INCLINATION    = 62.7827
RA_OF_ASC_NODE = 164.6878
ARG_OF_PERICENTER = 352.8710
MEAN_ANOMALY   = 7.1972

EPHEMERIS_TYPE = 0
CLASSIFICATION_TYPE = U
NORAD_CAT_ID   = 20666
ELEMENT_SET_NO = 999
REV_AT_EPOCH   = 94213
BSTAR          = .21007617E-3
MEAN_MOTION_DOT = .2719E-4
MEAN_MOTION_DDOT = 0

CCSDS_OMM_VERS = 2.0
CREATION_DATE  = 
ORIGINATOR     = 

OBJECT_NAME    = SL-8 R/B
OBJECT_ID      = 1990-078B
CENTER_NAME    = EARTH
REF_FRAME      = TEME
TIME_SYSTEM    = UTC
MEAN_ELEMENT_THEORY = SGP/SGP4

EPOCH          = 2026-04-04T20:12:55.753344
MEAN_MOTION    = 14.89848269
ECCENTRICITY   = .03574525
INCLINATION    = 82.9043
RA_OF_ASC_NODE = 227.7728
ARG_OF_PERICENTER = 285.7274
MEAN_ANOMALY   = 70.4793

EPHEMERIS_TYPE = 0
CLASSIFICATION_TYPE = U
NORAD_CAT_ID   = 20775
ELEMENT_SET_NO = 999
REV_AT_EPOCH   = 81319
BSTAR          = .43287499E-3
MEAN_MOTION_DOT = .1462E-3
MEAN_MOTION_DDOT = 0

CCSDS_OMM_VERS = 2.0
CREATION_DATE  = 
ORIGINATOR     = 

OBJECT_NAME    = SL-8 R/B
OBJECT_ID      = 1991-006B
CENTER_NAME    = EARTH
REF_FRAME      = TEME
TIME_SYSTEM    = UTC
MEAN_ELEMENT_THEORY = SGP/SGP4

EPOCH          = 2026-04-04T22:35:42.244224
MEAN_MOTION    = 13.77498753
ECCENTRICITY   = .00214241
INCLINATION    = 82.9433
RA_OF_ASC_NODE = 150.5275
ARG_OF_PERICENTER = 324.6649
MEAN_ANOMALY   = 209.0018

EPHEMERIS_TYPE = 0
CLASSIFICATION_TYPE = U
NORAD_CAT_ID   = 21088
ELEMENT_SET_NO = 999
REV_AT_EPOCH   = 76768
BSTAR          = .10681941E-3
MEAN_MOTION_DOT = .121E-5
MEAN_MOTION_DDOT = 0

CCSDS_OMM_VERS = 2.0
CREATION_DATE  = 
ORIGINATOR     = 

OBJECT_NAME    = OKEAN-3
OBJECT_ID      = 1991-039A
CENTER_NAME    = EARTH
REF_FRAME      = TEME
TIME_SYSTEM    = UTC
MEAN_ELEMENT_THEORY = SGP/SGP4

EPOCH          = 2026-04-04T21:02:41.646624
MEAN_MOTION    = 15.04970529
ECCENTRICITY   = .00128885
INCLINATION    = 82.5149
RA_OF_ASC_NODE = 311.4677
ARG_OF_PERICENTER = 239.9788
MEAN_ANOMALY   = 120.0161

EPHEMERIS_TYPE = 0
CLASSIFICATION_TYPE = U
NORAD_CAT_ID   = 21397
ELEMENT_SET_NO = 999
REV_AT_EPOCH   = 86897
BSTAR          = .31345043E-3
MEAN_MOTION_DOT = .4477E-4
MEAN_MOTION_DDOT = 0

CCSDS_OMM_VERS = 2.0
CREATION_DATE  = 
ORIGINATOR     = 

OBJECT_NAME    = COSMOS 2151
OBJECT_ID      = 1991-042A
CENTER_NAME    = EARTH
REF_FRAME      = TEME
TIME_SYSTEM    = UTC
MEAN_ELEMENT_THEORY = SGP/SGP4

EPOCH          = 2026-04-04T21:31:33.932064
MEAN_MOTION    = 15.00229085
ECCENTRICITY   = .00117065
INCLINATION    = 82.4962
RA_OF_ASC_NODE = 58.3887
ARG_OF_PERICENTER = 339.4837
MEAN_ANOMALY   = 20.5915

EPHEMERIS_TYPE = 0
CLASSIFICATION_TYPE = U
NORAD_CAT_ID   = 21422
ELEMENT_SET_NO = 999
REV_AT_EPOCH   = 86712
BSTAR          = .26908643E-3
MEAN_MOTION_DOT = .3395E-4
MEAN_MOTION_DDOT = 0

CCSDS_OMM_VERS = 2.0
CREATION_DATE  = 
ORIGINATOR     = 

OBJECT_NAME    = SL-14 R/B
OBJECT_ID      = 1991-042B
CENTER_NAME    = EARTH
REF_FRAME      = TEME
TIME_SYSTEM    = UTC
MEAN_ELEMENT_THEORY = SGP/SGP4

EPOCH          = 2026-04-04T18:07:08.896512
MEAN_MOTION    = 14.81858148
ECCENTRICITY   = .00177816
INCLINATION    = 82.4960
RA_OF_ASC_NODE = 195.7468
ARG_OF_PERICENTER = 151.2856
MEAN_ANOMALY   = 208.9341

EPHEMERIS_TYPE = 0
CLASSIFICATION_TYPE = U
NORAD_CAT_ID   = 21423
ELEMENT_SET_NO = 999
REV_AT_EPOCH   = 85693
BSTAR          = .87925814E-4
MEAN_MOTION_DOT = .72E-5
MEAN_MOTION_DDOT = 0

