COSMOS 2058             
1 20465U 90010A   26094.86485641  .00006287  00000+0  36857-3 0  9994
2 20465  82.4727  21.6381 0008078 237.1930 122.8522 15.11590190946191
SL-14 R/B               
1 20466U 90010B   26094.92344080  .00000694  00000+0  81098-4 0  9997
2 20466  82.5007 242.7404 0019066 209.7617 150.2515 14.83596455932372
SL-14 R/B               
1 20511U 90018B   26094.76388322  .00000700  00000+0  84741-4 0  9991
2 20511  82.5243 198.7248 0016392  11.3524 348.8057 14.82172840926448
HST                     
1 20580U 90037B   26094.64776769  .00011124  00000+0  36493-3 0  9993
2 20580  28.4724 222.8665 0002193  61.0619 299.0197 15.29923140777298
SL-16 R/B               
1 20625U 90046B   26094.85313983  .00000008  00000+0  28972-4 0  9994
2 20625  70.9988 242.9608 0016569 265.7039  94.2190 14.15019317852099
COSMOS 2084             
1 20663U 90055A   26094.82156225  .00004272  00000+0  30627-3 0  9993
2 20663  62.7898 246.4378 0012885 199.0810 160.9810 15.05816242940254
SL-6 R/B(2)             
1 20666U 90055D   26094.90660984  .00002719  00000+0  21008-3 0  9994
2 20666  62.7827 164.6878 0029105 352.8710   7.1972 15.03728874942137
SL-8 R/B                
1 20775U 90078B   26094.84231196  .00014620  00000+0  43287-3 0  9999
2 20775  82.9043 227.7728 0357452 285.7274  70.4793 14.89848269813196
SL-8 R/B                
1 21088U 91006B   26094.94146116  .00000121  00000+0  10682-3 0  9991
2 21088  82.9433 150.5275 0021424 324.6649 209.0018 13.77498753767680
OKEAN-3                 
1 21397U 91039A   26094.87687091  .00004477  00000+0  31345-3 0  9991
2 21397  82.5149 311.4677 0012888 239.9788 120.0161 15.04970529868976
COSMOS 2151             
1 21422U 91042A   26094.89692051  .00003395  00000+0  26909-3 0  9996
2 21422  82.4962  58.3887 0011706 339.4837  20.5915 15.00229085867123
SL-14 R/B               
1 21423U 91042B   26094.75496408  .00000720  00000+0  87926-4 0  9996
2 21423  82.4960 195.7468 0017781 151.2856 208.9341 14.81858148856931
